IRIDIUM 112             
1 41925U 17003J   24330.86895860  .00000171  00000+0  54105-4 0  9991
2 41925  86.3949 325.8032 0002601  95.2114 264.9379 14.34218483411819
IRIDIUM 111             
1 41926U 17003K   24330.50741266 -.00000088  00000+0 -38362-4 0  9999
2 41926  86.3943 326.0117 0002231  85.3295 274.8156 14.34224734411819
IRIDIUM 113             
1 42803U 17039A   24330.69671428  .00000718  00000+0  24921-3 0  9998
2 42803  86.4014 199.7134 0002494  90.7272 269.4209 14.34224049389704
IRIDIUM 123             
1 42804U 17039B   24330.59864627  .00000210  00000+0  67792-4 0  9994
2 42804  86.3996 231.1993 0002152  73.5435 286.5997 14.34213926388455
IRIDIUM 120             
1 42805U 17039C   24330.69035970  .00000091  00000+0  25437-4 0  9994
2 42805  86.4009 199.5730 0001943  78.6494 281.4920 14.34216535389692
IRIDIUM 115             
1 42806U 17039D   24330.60568928  .00000412  00000+0  11642-3 0  9999
2 42806  86.4541 199.6564 0002127  77.1333 283.0105 14.43285030392256
IRIDIUM 118             
1 42807U 17039E   24330.28151071  .00000841  00000+0  29306-3 0  9993
2 42807  86.3995 231.3323 0002149  85.9798 274.1644 14.34223470388403
IRIDIUM 117             
1 42808U 17039F   24330.71915373  .00000528  00000+0  18143-3 0  9994
2 42808  86.3996 231.1125 0002184  76.9595 283.1844 14.34212799388490
